BEIJING 1               
1 28890U 05043A   23312.50646432  .00000966  00000+0  20178-3 0  9991
2 28890  98.1768  72.4043 0015514  24.8347 335.3598 14.62000605961503
HJ-1A                   
1 33320U 08041A   23312.44594423  .00003238  00000+0  44457-3 0  9992
2 33320  97.6395 325.5505 0021091  19.1191 341.0808 14.78875542817575
HJ-1B                   
1 33321U 08041B   23312.45072170  .00002366  00000+0  31935-3 0  9992
2 33321  97.6390 330.0139 0040246  61.4927 299.0329 14.79439152817580
YAOGAN 4                
1 33446U 08061A   23312.43040893  .00003033  00000+0  41800-3 0  9991
2 33446  97.8608 243.9195 0014146 287.8896  72.0772 14.78875769804770
DEIMOS-1                
1 35681U 09041A   23312.47958982  .00001409  00000+0  22763-3 0  9996
2 35681  97.6775 141.3995 0002447  54.8127 305.3311 14.72797924766672
UK-DMC 2                
1 35683U 09041C   23312.46766886  .00002270  00000+0  36442-3 0  9993
2 35683  97.7510 104.8086 0001629  87.2285 272.9110 14.72556732766376
RISAT 1                 
1 38248U 12017A   23312.47323634  .00011985  00000+0  57890-3 0  9994
2 38248  97.5381 324.8665 0001987 329.6927  30.4192 15.18798295635892
DMC3-FM1                
1 40715U 15032A   23312.43856929  .00001801  00000+0  22761-3 0  9995
2 40715  97.7766 192.5113 0004632 308.5507  51.5291 14.83073215448706
DMC3-FM2                
1 40716U 15032B   23312.46133710  .00001848  00000+0  23356-3 0  9997
2 40716  97.7817 193.4609 0006576 309.6133  50.4500 14.83038668448704
DMC3-FM3                
1 40717U 15032C   23312.41620524  .00001932  00000+0  24345-3 0  9990
2 40717  97.7860 194.5695 0008009 305.9349  54.1121 14.83090779448702
